OBJECT_NAME,OBJECT_ID,EPOCH,MEAN_MOTION,ECCENTRICITY,INCLINATION,RA_OF_ASC_NODE,ARG_OF_PERICENTER,MEAN_ANOMALY,EPHEMERIS_TYPE,CLASSIFICATION_TYPE,NORAD_CAT_ID,ELEMENT_SET_NO,REV_AT_EPOCH,BSTAR,MEAN_MOTION_DOT,MEAN_MOTION_DDOT
STARLINK-5712,2023-020AY,2026-06-08T09:13:45.394752,15.27576283,.00020655,43.0023,201.7131,269.2598,90.8017,0,U,55615,999,18291,.18926339E-4,.258E-5,0
STARLINK-5710,2023-020AZ,2026-06-08T09:28:33.595392,15.27573343,.00016548,43.0017,201.7881,269.5407,90.5255,0,U,55616,999,18291,.15499873E-4,.164E-5,0
STARLINK-5721,2023-020BA,2026-06-08T09:19:18.047712,15.27581305,.00024307,43.0019,201.7369,272.9288,87.1286,0,U,55617,999,18291,.2597502E-5,-.191E-5,0
STARLINK-5717,2023-020BB,2026-06-08T09:34:06.417696,15.27576881,.0001101,42.9982,201.8153,258.2392,101.8336,0,U,55618,999,18291,.15456103E-4,.163E-5,0
STARLINK-5720,2023-020BC,2026-06-08T19:04:34.525056,15.27586939,.0001653,42.9986,199.6251,277.6729,82.3934,0,U,55619,999,18296,.4116E-4,.871E-5,0
STARLINK-5718,2023-020BD,2026-06-08T19:10:08.625216,15.27578928,.0001323,42.9979,199.6582,265.9332,94.1368,0,U,55620,999,18297,-.10127E-4,-.541E-5,0
STARLINK-5709,2023-020BE,2026-06-08T09:23:00.020544,15.27581741,.00018801,43.0016,201.7592,273.3985,86.6651,0,U,55621,999,18291,.47353273E-4,.1041E-4,0
STARLINK-5702,2023-020BF,2026-06-08T19:15:42.134400,15.27572706,.000109,43.0001,199.6852,269.5221,90.5505,0,U,55622,999,18297,.12301E-4,.76E-6,0
STARLINK-5698,2023-020BG,2026-06-08T19:19:23.945664,15.27574635,.0001239,43.0001,199.7060,257.6283,102.4430,0,U,55623,999,639,.12354E-5,-.228E-5,0
STARLINK-5484,2023-021A,2026-06-08T20:49:03.658080,14.98324185,.0002741,69.9998,334.6509,259.1190,100.9661,0,U,55628,999,18195,-.31491E-4,-.469E-5,0
STARLINK-5497,2023-021B,2026-06-08T20:55:04.138752,14.98333354,.0002667,69.9994,334.6667,258.4950,101.5909,0,U,55629,999,18195,.33331E-4,.305E-5,0
STARLINK-5303,2023-021C,2026-06-08T20:43:02.914752,14.98331690,.0002534,69.9992,334.6353,268.0505,92.0363,0,U,55630,999,18195,.84826E-5,.8E-7,0
STARLINK-5558,2023-021D,2026-06-08T21:43:07.189248,14.98335534,.0002827,69.9999,334.3771,267.9784,92.1052,0,U,55631,999,18196,.75091E-4,.803E-5,0
STARLINK-5546,2023-021E,2026-06-08T20:31:01.656192,14.98332500,.0002886,69.9994,334.6040,271.0149,89.0679,0,U,55632,999,18195,.79798E-4,.859E-5,0
STARLINK-5498,2023-021F,2026-06-08T20:25:01.072704,14.98344809,.000338,69.9991,334.5899,270.7581,89.3191,0,U,55633,999,18195,.81212E-4,.876E-5,0
STARLINK-5500,2023-021G,2026-06-08T20:31:16.271616,14.98322900,.0003099,69.9990,334.6053,271.4575,88.6229,0,U,55634,999,18194,-.32442E-4,-.48E-5,0
STARLINK-5495,2023-021H,2026-06-09T04:01:19.407072,14.98329854,.0003082,69.9989,313.8194,267.9550,92.1256,0,U,55635,999,18249,.47015E-4,.468E-5,0
STARLINK-5218,2023-021J,2026-06-08T21:49:07.785696,14.98329825,.0002827,69.9998,334.3929,267.5108,92.5727,0,U,55636,999,18196,.38974E-4,.372E-5,0
STARLINK-5062,2023-021K,2026-06-08T20:24:41.638752,14.98331493,.0003142,69.9994,314.7176,269.2826,90.7973,0,U,55637,999,18244,.26914E-4,.228E-5,0
STARLINK-5507,2023-021L,2026-06-08T21:55:09.535584,14.98320124,.0003084,69.9994,334.4070,273.0824,86.9982,0,U,55638,999,18196,.84635E-4,.917E-5,0
STARLINK-5508,2023-021M,2026-06-09T03:55:33.585888,14.98318672,.0003208,69.9991,313.8025,269.9365,90.1426,0,U,55639,999,18249,.98278E-4,.1079E-4,0
STARLINK-5069,2023-021N,2026-06-09T03:49:18.162336,14.98327596,.0002443,69.9994,313.7860,268.7549,91.3330,0,U,55640,999,18249,.52099E-4,.529E-5,0
STARLINK-5065,2023-021P,2026-06-08T20:30:42.203232,14.98332777,.0003414,69.9994,314.7296,269.3065,90.7703,0,U,55641,999,18244,.7632E-4,.818E-5,0
STARLINK-5483,2023-021R,2026-06-09T03:07:15.792096,14.98330765,.0002969,69.9997,314.0827,271.0491,89.0327,0,U,55643,999,18248,-.47633E-5,-.15E-5,0
STARLINK-5502,2023-021S,2026-06-09T04:13:20.803008,14.98330042,.0002786,69.9989,313.8459,248.3070,111.7793,0,U,55644,999,18249,.60879E-4,.633E-5,0
STARLINK-5510,2023-021V,2026-06-09T03:25:15.568320,14.98330042,.000288,69.9996,313.7280,269.1456,90.9373,0,U,55647,999,18249,.26656E-4,.225E-5,0
STARLINK-5501,2023-021W,2026-06-09T04:07:20.074368,14.98329801,.0002965,69.9989,313.8314,269.2177,90.8642,0,U,55648,999,18249,.39896E-4,.383E-5,0
STARLINK-5469,2023-021X,2026-06-09T03:37:16.894272,14.98328576,.0002865,69.9992,313.7574,269.9090,90.1741,0,U,55649,999,18249,-.25015E-5,-.123E-5,0
STARLINK-5494,2023-021Y,2026-06-09T03:55:18.778656,14.98327708,.0002584,69.9990,313.8011,268.5035,91.5828,0,U,55650,999,18249,.60133E-4,.625E-5,0
STARLINK-5506,2023-021Z,2026-06-08T20:18:40.938624,14.98333071,.00032,69.9992,314.7028,270.2083,89.8709,0,U,55651,999,18244,.71722E-4,.763E-5,0
