STARLINK-5712           
1 55615U 23020AY  26159.38455318  .00000258  00000+0  18926-4 0  9993
2 55615  43.0023 201.7131 0002065 269.2598  90.8017 15.27576283182917
STARLINK-5710           
1 55616U 23020AZ  26159.39483328  .00000164  00000+0  15500-4 0  9998
2 55616  43.0017 201.7881 0001654 269.5407  90.5255 15.27573343182913
STARLINK-5721           
1 55617U 23020BA  26159.38840333 -.00000191  00000+0  25975-5 0  9990
2 55617  43.0019 201.7369 0002430 272.9288  87.1286 15.27581305182918
STARLINK-5717           
1 55618U 23020BB  26159.39868539  .00000163  00000+0  15456-4 0  9990
2 55618  42.9982 201.8153 0001101 258.2392 101.8336 15.27576881182918
STARLINK-5720           
1 55619U 23020BC  26159.79484404  .00000871  00000+0  41160-4 0  9997
2 55619  42.9986 199.6251 0001653 277.6729  82.3934 15.27586939182964
STARLINK-5718           
1 55620U 23020BD  26159.79871094 -.00000541  00000+0 -10127-4 0  9999
2 55620  42.9979 199.6582 0001323 265.9332  94.1368 15.27578928182971
STARLINK-5709           
1 55621U 23020BE  26159.39097246  .00001041  00000+0  47353-4 0  9990
2 55621  43.0016 201.7592 0001880 273.3985  86.6651 15.27581741182919
STARLINK-5702           
1 55622U 23020BF  26159.80257100  .00000076  00000+0  12301-4 0  9996
2 55622  43.0001 199.6852 0001090 269.5221  90.5505 15.27572706182970
STARLINK-5698           
1 55623U 23020BG  26159.80513826 -.00000228  00000+0  12354-5 0  9996
2 55623  43.0001 199.7060 0001239 257.6283 102.4430 15.27574635  6398
STARLINK-5484           
1 55628U 23021A   26159.86740345 -.00000469  00000+0 -31491-4 0  9996
2 55628  69.9998 334.6509 0002741 259.1190 100.9661 14.98324185181951
STARLINK-5497           
1 55629U 23021B   26159.87157568  .00000305  00000+0  33331-4 0  9999
2 55629  69.9994 334.6667 0002667 258.4950 101.5909 14.98333354181956
STARLINK-5303           
1 55630U 23021C   26159.86322818  .00000008  00000+0  84826-5 0  9998
2 55630  69.9992 334.6353 0002534 268.0505  92.0363 14.98331690181953
STARLINK-5558           
1 55631U 23021D   26159.90494432  .00000803  00000+0  75091-4 0  9992
2 55631  69.9999 334.3771 0002827 267.9784  92.1052 14.98335534181962
STARLINK-5546           
1 55632U 23021E   26159.85488028  .00000859  00000+0  79798-4 0  9990
2 55632  69.9994 334.6040 0002886 271.0149  89.0679 14.98332500181955
STARLINK-5498           
1 55633U 23021F   26159.85070686  .00000876  00000+0  81212-4 0  9991
2 55633  69.9991 334.5899 0003380 270.7581  89.3191 14.98344809181957
STARLINK-5500           
1 55634U 23021G   26159.85504944 -.00000480  00000+0 -32442-4 0  9995
2 55634  69.9990 334.6053 0003099 271.4575  88.6229 14.98322900181949
STARLINK-5495           
1 55635U 23021H   26160.16758573  .00000468  00000+0  47015-4 0  9997
2 55635  69.9989 313.8194 0003082 267.9550  92.1256 14.98329854182494
STARLINK-5218           
1 55636U 23021J   26159.90911789  .00000372  00000+0  38974-4 0  9996
2 55636  69.9998 334.3929 0002827 267.5108  92.5727 14.98329825181966
STARLINK-5062           
1 55637U 23021K   26159.85048193  .00000228  00000+0  26914-4 0  9992
2 55637  69.9994 314.7176 0003142 269.2826  90.7973 14.98331493182447
STARLINK-5507           
1 55638U 23021L   26159.91330481  .00000917  00000+0  84635-4 0  9993
2 55638  69.9994 334.4070 0003084 273.0824  86.9982 14.98320124181968
STARLINK-5508           
1 55639U 23021M   26160.16358317  .00001079  00000+0  98278-4 0  9999
2 55639  69.9991 313.8025 0003208 269.9365  90.1426 14.98318672182493
STARLINK-5069           
1 55640U 23021N   26160.15923799  .00000529  00000+0  52099-4 0  9992
2 55640  69.9994 313.7860 0002443 268.7549  91.3330 14.98327596182497
STARLINK-5065           
1 55641U 23021P   26159.85465513  .00000818  00000+0  76320-4 0  9997
2 55641  69.9994 314.7296 0003414 269.3065  90.7703 14.98332777182440
STARLINK-5483           
1 55643U 23021R   26160.13004389 -.00000150  00000+0 -47633-5 0  9999
2 55643  69.9997 314.0827 0002969 271.0491  89.0327 14.98330765182487
STARLINK-5502           
1 55644U 23021S   26160.17593522  .00000633  00000+0  60879-4 0  9996
2 55644  69.9989 313.8459 0002786 248.3070 111.7793 14.98330042182493
STARLINK-5510           
1 55647U 23021V   26160.14254130  .00000225  00000+0  26656-4 0  9997
2 55647  69.9996 313.7280 0002880 269.1456  90.9373 14.98330042182491
STARLINK-5501           
1 55648U 23021W   26160.17176012  .00000383  00000+0  39896-4 0  9998
2 55648  69.9989 313.8314 0002965 269.2177  90.8642 14.98329801182497
STARLINK-5469           
1 55649U 23021X   26160.15088998 -.00000123  00000+0 -25015-5 0  9995
2 55649  69.9992 313.7574 0002865 269.9090  90.1741 14.98328576182490
STARLINK-5494           
1 55650U 23021Y   26160.16341179  .00000625  00000+0  60133-4 0  9995
2 55650  69.9990 313.8011 0002584 268.5035  91.5828 14.98327708182496
STARLINK-5506           
1 55651U 23021Z   26159.84630716  .00000763  00000+0  71722-4 0  9996
2 55651  69.9992 314.7028 0003200 270.2083  89.8709 14.98333071182449
